[
    {
        "Altitude(m)": 604983.0530381674,
        "Argument of Periapsis(deg)": 0.0,
        "Eccentricity": 0.0,
        "Inclination(deg)": 60.0,
        "Latitude(deg)": -0.09270549243407308,
        "Longitude(deg)": -134.91608375125105,
        "Mean Anomaly(deg)": 180.00000000000003,
        "RAAN(deg)": 145.0,
        "Satellite Name": "Test1 649",
        "Satellite Number": 649,
        "Semi-Major Axis(m)": 6980739.136638005,
        "Time(s)": 0
    },
    {
        "Altitude(m)": 605055.332904095,
        "Argument of Periapsis(deg)": 0.00010418945913296404,
        "Eccentricity": 0.0,
        "Inclination(deg)": 60.0,
        "Latitude(deg)": -0.6331158117017185,
        "Longitude(deg)": -134.64795972463054,
        "Mean Anomaly(deg)": 180.62010614546185,
        "RAAN(deg)": 144.99957995086027,
        "Satellite Name": "Test1 649",
        "Satellite Number": 649,
        "Semi-Major Axis(m)": 6980739.136638005,
        "Time(s)": 10
    }
]